[{"OBJECT_NAME":"COSMOS 2361","OBJECT_ID":"1998-076A","EPOCH":"2026-03-28T15:00:16.140384","MEAN_MOTION":13.73229955,"ECCENTRICITY":0.00308266,"INCLINATION":82.9297,"RA_OF_ASC_NODE":265.7788,"ARG_OF_PERICENTER":333.4455,"MEAN_ANOMALY":98.5735,"EPHEMERIS_TYPE":0,"CLASSIFICATION_TYPE":"U","NORAD_CAT_ID":25590,"ELEMENT_SET_NO":999,"REV_AT_EPOCH":36564,"BSTAR":8.226591e-5,"MEAN_MOTION_DOT":9.1e-7,"MEAN_MOTION_DDOT":0},{"OBJECT_NAME":"COSMOS 2378","OBJECT_ID":"2001-023A","EPOCH":"2026-03-28T14:38:18.038400","MEAN_MOTION":13.74152845,"ECCENTRICITY":0.00316536,"INCLINATION":82.9228,"RA_OF_ASC_NODE":281.2339,"ARG_OF_PERICENTER":272.4431,"MEAN_ANOMALY":148.4694,"EPHEMERIS_TYPE":0,"CLASSIFICATION_TYPE":"U","NORAD_CAT_ID":26818,"ELEMENT_SET_NO":999,"REV_AT_EPOCH":24377,"BSTAR":6.1237359e-5,"MEAN_MOTION_DOT":7.3e-7,"MEAN_MOTION_DDOT":0},{"OBJECT_NAME":"COSMOS 2389","OBJECT_ID":"2002-026A","EPOCH":"2026-03-28T15:01:21.489024","MEAN_MOTION":13.75166124,"ECCENTRICITY":0.00474804,"INCLINATION":82.9503,"RA_OF_ASC_NODE":228.5955,"ARG_OF_PERICENTER":123.7153,"MEAN_ANOMALY":248.9263,"EPHEMERIS_TYPE":0,"CLASSIFICATION_TYPE":"U","NORAD_CAT_ID":27436,"ELEMENT_SET_NO":999,"REV_AT_EPOCH":19604,"BSTAR":4.9144483e-5,"MEAN_MOTION_DOT":6.3e-7,"MEAN_MOTION_DDOT":0},{"OBJECT_NAME":"COSMOS 2398","OBJECT_ID":"2003-023A","EPOCH":"2026-03-28T13:22:04.031040","MEAN_MOTION":13.7239703,"ECCENTRICITY":0.00316062,"INCLINATION":82.9521,"RA_OF_ASC_NODE":194.7216,"ARG_OF_PERICENTER":176.5633,"MEAN_ANOMALY":194.1453,"EPHEMERIS_TYPE":0,"CLASSIFICATION_TYPE":"U","NORAD_CAT_ID":27818,"ELEMENT_SET_NO":999,"REV_AT_EPOCH":14268,"BSTAR":3.0481401e-5,"MEAN_MOTION_DOT":4.3e-7,"MEAN_MOTION_DDOT":0},{"OBJECT_NAME":"COSMOS 2407","OBJECT_ID":"2004-028A","EPOCH":"2026-03-28T14:23:00.749472","MEAN_MOTION":13.76327199,"ECCENTRICITY":0.00405812,"INCLINATION":82.9596,"RA_OF_ASC_NODE":134.526,"ARG_OF_PERICENTER":116.9855,"MEAN_ANOMALY":353.603,"EPHEMERIS_TYPE":0,"CLASSIFICATION_TYPE":"U","NORAD_CAT_ID":28380,"ELEMENT_SET_NO":999,"REV_AT_EPOCH":8879,"BSTAR":6.126479e-5,"MEAN_MOTION_DOT":7.6e-7,"MEAN_MOTION_DDOT":0},{"OBJECT_NAME":"COSMOS 2414","OBJECT_ID":"2005-002A","EPOCH":"2026-03-28T13:52:42.002688","MEAN_MOTION":13.87917721,"ECCENTRICITY":0.00396488,"INCLINATION":82.9453,"RA_OF_ASC_NODE":104.626,"ARG_OF_PERICENTER":197.2912,"MEAN_ANOMALY":162.6904,"EPHEMERIS_TYPE":0,"CLASSIFICATION_TYPE":"U","NORAD_CAT_ID":28521,"ELEMENT_SET_NO":999,"REV_AT_EPOCH":7263,"BSTAR":3.8385894e-5,"MEAN_MOTION_DOT":6.2e-7,"MEAN_MOTION_DDOT":0},{"OBJECT_NAME":"COSMOS 2429","OBJECT_ID":"2007-038A","EPOCH":"2026-03-28T14:04:28.814304","MEAN_MOTION":13.7516018,"ECCENTRICITY":0.00396841,"INCLINATION":82.9761,"RA_OF_ASC_NODE":265.2848,"ARG_OF_PERICENTER":100.3096,"MEAN_ANOMALY":260.2538,"EPHEMERIS_TYPE":0,"CLASSIFICATION_TYPE":"U","NORAD_CAT_ID":32052,"ELEMENT_SET_NO":999,"REV_AT_EPOCH":93057,"BSTAR":6.1960271e-5,"MEAN_MOTION_DOT":7.5e-7,"MEAN_MOTION_DDOT":0},{"OBJECT_NAME":"COSMOS 2454","OBJECT_ID":"2009-039A","EPOCH":"2026-03-28T12:13:58.949184","MEAN_MOTION":13.8994338,"ECCENTRICITY":0.0020349,"INCLINATION":82.9518,"RA_OF_ASC_NODE":88.4543,"ARG_OF_PERICENTER":127.2024,"MEAN_ANOMALY":351.0138,"EPHEMERIS_TYPE":0,"CLASSIFICATION_TYPE":"U","NORAD_CAT_ID":35635,"ELEMENT_SET_NO":999,"REV_AT_EPOCH":84619,"BSTAR":5.5247e-5,"MEAN_MOTION_DOT":8.4e-7,"MEAN_MOTION_DDOT":0},{"OBJECT_NAME":"COSMOS 2463","OBJECT_ID":"2010-017A","EPOCH":"2026-03-28T13:50:46.521312","MEAN_MOTION":13.71659723,"ECCENTRICITY":0.00360815,"INCLINATION":82.9593,"RA_OF_ASC_NODE":308.9542,"ARG_OF_PERICENTER":355.9293,"MEAN_ANOMALY":22.1557,"EPHEMERIS_TYPE":0,"CLASSIFICATION_TYPE":"U","NORAD_CAT_ID":36519,"ELEMENT_SET_NO":999,"REV_AT_EPOCH":79688,"BSTAR":5.7958662e-5,"MEAN_MOTION_DOT":6.7e-7,"MEAN_MOTION_DDOT":0}]
